1 43010U 17072A 26162.22747529 .00000037 00000+0 39302-4 0 9990 
2 43010 99.0121 136.5421 0002662 71.3717 288.7747 14.19738182444140 
1 43013U 17073A 26162.22144924 .00000044 00000+0 41840-4 0 9992 
2 43013 98.7772 101.7371 0000371 53.8840 306.2370 14.19510667443622 
1 43226U 18022A 26162.16225447 -.00000165 00000+0 00000+0 0 9999 
2 43226 0.9211 85.8214 0000495 21.2816 121.3328 1.00270949 30362 
1 43437U 18039A 26162.15852739 .00000077 00000+0 49850-4 0 9992 
2 43437 98.6248 229.7772 0000810 80.6094 279.5178 14.26740030423265 
1 43491U 18050A 26162.06855617 -.00000114 00000+0 00000+0 0 9995 
2 43491 3.0142 79.1497 0001744 129.0003 155.3925 1.00270649 29371 
1 43689U 18087A 26162.22588971 .00000074 00000+0 53803-4 0 9996 
2 43689 98.6645 221.9382 0001550 136.1450 223.9851 14.21510479393984 
1 43823U 18100A 26161.49975120 -.00000326 00000+0 00000+0 0 9993 
2 43823 0.0406 142.1603 0002206 303.3581 121.5075 1.00270047 27564 
1 44387U 19038A 26162.27374574 .00000243 00000+0 12501-3 0 9993 
2 44387 98.9144 149.4719 0002234 57.5654 302.5740 14.24365257360459 
1 47719U 21016A 26160.51571443 -.00000149 00000+0 00000+0 0 9996 
2 47719 63.2417 58.7595 7285674 269.8905 14.6803 2.00625436 38630 
1 49008U 21062A 26162.28247325 .00000274 00000+0 14981-3 0 9990 
2 49008 98.7496 165.7562 0002789 95.4932 264.6563 14.19904235255749 
1 51850U 22021A 26162.25433561 .00000114 00000+0 00000+0 0 9996 
2 51850 0.0111 92.7258 0000448 58.7348 62.6989 1.00271509 6537 
1 54234U 22150A 26162.18408441 .00000016 00000+0 28366-4 0 9990 
2 54234 98.7060 101.0741 0001325 167.6814 192.4395 14.19564397185699 
1 54743U 22170C 26162.19531150 .00000008 00000+0 00000+0 0 9993 
2 54743 0.7312 21.8906 0003259 71.9431 235.5977 1.00271706 12913 
1 55973U 23039A 26162.29411008 .00012676 00000+0 25180-3 0 9998 
2 55973 97.5229 336.0341 0004239 113.8592 246.3103 15.47116602179922 
1 55974U 23039B 26162.28585316 .00013404 00000+0 26072-3 0 9993 
2 55974 97.5167 335.1787 0004799 110.9467 249.2297 15.47709450179934 
1 55975U 23039C 26162.27459438 .00013087 00000+0 26058-3 0 9999 
2 55975 97.5210 335.6309 0003833 128.3645 231.7950 15.47042700179905 
1 55976U 23039D 26162.28886968 .00013311 00000+0 25980-3 0 9996 
2 55976 97.5220 336.2754 0004173 125.4668 234.6972 15.47615679179939 
1 56232U 23055A 26160.12520916 .00022526 00000+0 34170-3 0 9998 
2 56232 49.9935 27.5514 0005565 167.7824 192.3280 15.54457419178757 
1 57166U 23091A 26162.26669957 -.00000003 00000+0 17405-4 0 9991 
2 57166 98.6091 217.3659 0004025 170.8606 189.2647 14.24046293153676 
1 57399U 23101A 26162.21310686 .00005820 00000+0 20457-3 0 9999 
2 57399 97.2600 213.0186 0003783 133.8525 226.3029 15.29738189160732 
1 57400U 23101B 26162.31059115 .00005035 00000+0 17727-3 0 9994 
2 57400 97.2589 212.8853 0005343 129.3948 230.7766 15.29742669160748 
1 57401U 23101C 26162.22870909 .00005431 00000+0 19088-3 0 9999 
2 57401 97.2547 212.2242 0004207 140.2593 219.8957 15.29771078160730 
1 57402U 23101D 26162.19623687 .00005409 00000+0 19025-3 0 9991 
2 57402 97.2626 213.2369 0005781 142.0666 218.0983 15.29742006160727 
1 57490U 23111A 26162.26652813 .00000021 00000+0 30185-4 0 9996 
2 57490 98.6841 232.3853 0001590 97.8330 262.3028 14.19938061148024 
1 58584U 23198A 26160.78386103 .00000212 00000+0 00000+0 0 9997 
2 58584 63.2205 155.1874 6900401 267.4353 18.7899 2.00606537 18179 
1 58645U 23205A 26162.22120494 .00004785 00000+0 18348-3 0 9991 
2 58645 97.3451 183.8717 0009654 36.7740 323.4159 15.26932906136612 
1 58646U 23205B 26162.32249491 .00004898 00000+0 18807-3 0 9997 
2 58646 97.3438 183.7282 0007473 23.7446 336.4136 15.26896763136619 
1 58647U 23205C 26162.28857519 .00004811 00000+0 18562-3 0 9992 
2 58647 97.3467 183.9666 0006616 4.1026 356.0266 15.26750322136606 
1 58648U 23205D 26162.33949271 .00004926 00000+0 18968-3 0 9993 
2 58648 97.3402 183.2031 0007592 7.4458 352.6892 15.26795670136617 
1 58660U 23208A 26162.27604295 .00006949 00000+0 23109-3 0 9997 
2 58660 97.4493 278.5463 0004281 353.9014 6.2175 15.31483698136423 
