OBJECT_NAME,OBJECT_ID,EPOCH,MEAN_MOTION,ECCENTRICITY,INCLINATION,RA_OF_ASC_NODE,ARG_OF_PERICENTER,MEAN_ANOMALY,EPHEMERIS_TYPE,CLASSIFICATION_TYPE,NORAD_CAT_ID,ELEMENT_SET_NO,REV_AT_EPOCH,BSTAR,MEAN_MOTION_DOT,MEAN_MOTION_DDOT
FENGYUN 3D,2017-072A,2026-06-11T05:27:33.865056,14.19738182,.00026622,99.0121,136.5421,71.3717,288.7747,0,U,43010,999,44414,.39302324E-4,.37E-6,0
NOAA 20 (JPSS-1),2017-073A,2026-06-11T05:18:53.214336,14.19510667,.00003719,98.7772,101.7371,53.8840,306.2370,0,U,43013,999,44362,.41839743E-4,.44E-6,0
GOES 17,2018-022A,2026-06-11T03:53:38.786208,1.00270949,.00004954,0.9211,85.8214,21.2816,121.3328,0,U,43226,999,3036,0,-.165E-5,0
SENTINEL-3B,2018-039A,2026-06-11T03:48:16.766496,14.26740030,.00008105,98.6248,229.7772,80.6094,279.5178,0,U,43437,999,42326,.49849941E-4,.77E-6,0
FENGYUN 2H,2018-050A,2026-06-11T01:38:43.253088,1.00270649,.00017448,3.0142,79.1497,129.0003,155.3925,0,U,43491,999,2937,0,-.114E-5,0
METOP-C,2018-087A,2026-06-11T05:25:16.870944,14.21510479,.000155,98.6645,221.9382,136.1450,223.9851,0,U,43689,999,39398,.53802885E-4,.74E-6,0
GEO-KOMPSAT-2A,2018-100A,2026-06-10T11:59:38.503680,1.00270047,.00022067,0.0406,142.1603,303.3581,121.5075,0,U,43823,999,2756,0,-.326E-5,0
METEOR-M2 2,2019-038A,2026-06-11T06:34:11.631936,14.24365257,.0002234,98.9144,149.4719,57.5654,302.5740,0,U,44387,999,36045,.1250133E-3,.243E-5,0
ARKTIKA-M 1,2021-016A,2026-06-09T12:22:37.726752,2.00625436,.7285674,63.2417,58.7595,269.8905,14.6803,0,U,47719,999,3863,0,-.149E-5,0
FENGYUN 3E,2021-062A,2026-06-11T06:46:45.688800,14.19904235,.00027895,98.7496,165.7562,95.4932,264.6563,0,U,49008,999,25574,.14980929E-3,.274E-5,0
GOES 18,2022-021A,2026-06-11T06:06:14.596704,1.00271509,.00004486,0.0111,92.7258,58.7348,62.6989,0,U,51850,999,653,0,.114E-5,0
NOAA 21 (JPSS-2),2022-150A,2026-06-11T04:25:04.893024,14.19564397,.00013255,98.7060,101.0741,167.6814,192.4395,0,U,54234,999,18569,.28365882E-4,.16E-6,0
METEOSAT-12 (MTG-I1),2022-170C,2026-06-11T04:41:14.913600,1.00271706,.00032596,0.7312,21.8906,71.9431,235.5977,0,U,54743,999,1291,0,.8E-7,0
TIANMU-1 03,2023-039A,2026-06-11T07:03:31.110912,15.47116602,.00042394,97.5229,336.0341,113.8592,246.3103,0,U,55973,999,17992,.25180059E-3,.12676E-3,0
TIANMU-1 04,2023-039B,2026-06-11T06:51:37.713024,15.47709450,.00047992,97.5167,335.1787,110.9467,249.2297,0,U,55974,999,17993,.26072242E-3,.13404E-3,0
TIANMU-1 05,2023-039C,2026-06-11T06:35:24.954432,15.47042700,.00038335,97.5210,335.6309,128.3645,231.7950,0,U,55975,999,17990,.26057789E-3,.13087E-3,0
TIANMU-1 06,2023-039D,2026-06-11T06:55:58.340352,15.47615679,.0004173,97.5220,336.2754,125.4668,234.6972,0,U,55976,999,17993,.25980466E-3,.13311E-3,0
FENGYUN 3G,2023-055A,2026-06-09T03:00:18.071424,15.54457419,.0005565,49.9935,27.5514,167.7824,192.3280,0,U,56232,999,17875,.34170294E-3,.22526E-3,0
METEOR-M2 3,2023-091A,2026-06-11T06:24:02.842848,14.24046293,.00040253,98.6091,217.3659,170.8606,189.2647,0,U,57166,999,15367,.17404679E-4,-.3E-7,0
TIANMU-1 07,2023-101A,2026-06-11T05:06:52.432704,15.29738189,.00037834,97.2600,213.0186,133.8525,226.3029,0,U,57399,999,16073,.20457105E-3,.582E-4,0
TIANMU-1 08,2023-101B,2026-06-11T07:27:15.075360,15.29742669,.00053434,97.2589,212.8853,129.3948,230.7766,0,U,57400,999,16074,.17726798E-3,.5035E-4,0
TIANMU-1 09,2023-101C,2026-06-11T05:29:20.465376,15.29771078,.00042079,97.2547,212.2242,140.2593,219.8957,0,U,57401,999,16073,.19088096E-3,.5431E-4,0
TIANMU-1 10,2023-101D,2026-06-11T04:42:34.865568,15.29742006,.00057816,97.2626,213.2369,142.0666,218.0983,0,U,57402,999,16072,.19024691E-3,.5409E-4,0
FENGYUN 3F,2023-111A,2026-06-11T06:23:48.030432,14.19938061,.00015908,98.6841,232.3853,97.8330,262.3028,0,U,57490,999,14802,.30184552E-4,.21E-6,0
ARKTIKA-M 2,2023-198A,2026-06-09T18:48:45.592992,2.00606537,.69004015,63.2205,155.1874,267.4353,18.7899,0,U,58584,999,1817,0,.212E-5,0
TIANMU-1 11,2023-205A,2026-06-11T05:18:32.106816,15.26932906,.00096542,97.3451,183.8717,36.7740,323.4159,0,U,58645,999,13661,.18348328E-3,.4785E-4,0
TIANMU-1 12,2023-205B,2026-06-11T07:44:23.560224,15.26896763,.00074735,97.3438,183.7282,23.7446,336.4136,0,U,58646,999,13661,.18807127E-3,.4898E-4,0
TIANMU-1 13,2023-205C,2026-06-11T06:55:32.896416,15.26750322,.00066167,97.3467,183.9666,4.1026,356.0266,0,U,58647,999,13660,.18561703E-3,.4811E-4,0
TIANMU-1 14,2023-205D,2026-06-11T08:08:52.170144,15.26795670,.0007592,97.3402,183.2031,7.4458,352.6892,0,U,58648,999,13661,.18968015E-3,.4926E-4,0
TIANMU-1 19,2023-208A,2026-06-11T06:37:30.110880,15.31483698,.00042818,97.4493,278.5463,353.9014,6.2175,0,U,58660,999,13642,.23109401E-3,.6949E-4,0
